KUIPER-00053            
1 64513U 25134P   25200.73450864  .00018691  00000+0  52952-3 0  9990
2 64513  51.8771 204.1154 0001818 182.2586 177.8392 15.36299462  5286
KUIPER-00054            
1 64514U 25134Q   25200.73801330  .00021624  00000+0  61362-3 0  9994
2 64514  51.8753 204.1384 0002859 177.3225 182.7777 15.36149282  5289
KUIPER-00055            
1 64515U 25134R   25200.72702620  .00021219  00000+0  59094-3 0  9995
2 64515  51.8775 204.0686 0000249  71.2674 288.8340 15.36748132  5282
KUIPER-00056            
1 64516U 25134S   25200.74151971  .00019523  00000+0  56028-3 0  9994
2 64516  51.8743 204.1591 0003415 188.5197 171.5732 15.35861923  5280
KUIPER-00057            
1 64517U 25134T   25200.29965140  .00025147  00000+0  73789-3 0  9998
2 64517  51.8692 206.4407 0006592 196.0066 164.0712 15.34991593  5217
KUIPER-00058            
1 64518U 25134U   25200.29195046  .00025795  00000+0  74262-3 0  9995
2 64518  51.8717 206.3945 0004425 198.9206 161.1617 15.35585698  5210
KUIPER-00059            
1 64519U 25134V   25200.27325317  .00018960  00000+0  52967-3 0  9994
2 64519  51.8786 206.2727 0001189 115.5513 244.5596 15.36727555  5217
KUIPER-00060            
1 64520U 25134W   25200.27712847  .00020635  00000+0  58024-3 0  9996
2 64520  51.8769 206.3007 0001984 142.6890 217.4234 15.36466074  5207
